GLOBAL-2                
1 43812U 18099BG  26068.69955396  .00003970  00000+0  26145-3 0  9998
2 43812  97.3697 109.3280 0007454 127.1924 232.9986 15.08046936396919
STARLINK-3400           
1 51128U 22005AA  26068.86741270 -.00000069  00000+0  13723-4 0  9998
2 51128  53.2183 298.3269 0001250  93.2131 266.9004 15.08832435228757
